{
  "id": "maptiler-planet",
  "bounds": [-180, -85.0511, 180, 85.0511],
  "center": [0, 0, 1],
  "format": "pbf",
  "version": "3.13.0",
  "tilejson": "2.1.0",
  "generator": "MapTiler Data",
  "planettime": "1641600000000",
  "attribution":"<a href=\"https://www.phenikaamaas.com/\" target=\"_blank\">&copy; Phenikaa MaaS</a>",
  "description": "As the main global tileset contains layers for the general-purpose maps. In the comparison with OpenMapTiles, it contains more buildings and landcover in North America, controlled borders, and global landcover. This data are released in month cycles with quality control.",
  "pixel_scale": "256",
  "name": "MapTiler Planet",
  "minzoom": 0,
  "maxzoom": 14,
  "vector_layers": [
    {
      "id": "water",
      "description": "",
      "minzoom": 0,
      "maxzoom": 22,
      "fields": { "class": "String" }
    },
    {
      "id": "waterway",
      "description": "",
      "minzoom": 0,
      "maxzoom": 22,
      "fields": {
        "brunnel": "String",
        "class": "String",
        "name": "String",
        "name:ar": "String",
        "name:az": "String",
        "name:be": "String",
        "name:bg": "String",
        "name:br": "String",
        "name:bs": "String",
        "name:ca": "String",
        "name:cs": "String",
        "name:cy": "String",
        "name:da": "String",
        "name:de": "String",
        "name:el": "String",
        "name:en": "String",
        "name:eo": "String",
        "name:es": "String",
        "name:et": "String",
        "name:fi": "String",
        "name:fr": "String",
        "name:fy": "String",
        "name:ga": "String",
        "name:gd": "String",
        "name:he": "String",
        "name:hr": "String",
        "name:hu": "String",
        "name:hy": "String",
        "name:is": "String",
        "name:it": "String",
        "name:ja": "String",
        "name:ja_kana": "String",
        "name:ja_rm": "String",
        "name:ka": "String",
        "name:kk": "String",
        "name:kn": "String",
        "name:ko": "String",
        "name:ko_rm": "String",
        "name:la": "String",
        "name:latin": "String",
        "name:lb": "String",
        "name:lt": "String",
        "name:lv": "String",
        "name:mk": "String",
        "name:ml": "String",
        "name:mt": "String",
        "name:nl": "String",
        "name:no": "String",
        "name:nonlatin": "String",
        "name:pl": "String",
        "name:pt": "String",
        "name:rm": "String",
        "name:ro": "String",
        "name:ru": "String",
        "name:sk": "String",
        "name:sl": "String",
        "name:sq": "String",
        "name:sr": "String",
        "name:sr-Latn": "String",
        "name:sv": "String",
        "name:th": "String",
        "name:tr": "String",
        "name:uk": "String",
        "name:zh": "String",
        "name_de": "String",
        "name_en": "String",
        "name_int": "String"
      }
    },
    {
      "id": "landcover",
      "description": "",
      "minzoom": 0,
      "maxzoom": 22,
      "fields": { "class": "String", "subclass": "String" }
    },
    {
      "id": "landuse",
      "description": "",
      "minzoom": 0,
      "maxzoom": 22,
      "fields": { "class": "String" }
    },
    {
      "id": "mountain_peak",
      "description": "",
      "minzoom": 0,
      "maxzoom": 22,
      "fields": {
        "ele": "Number",
        "ele_ft": "Number",
        "name": "String",
        "name:ar": "String",
        "name:az": "String",
        "name:be": "String",
        "name:bg": "String",
        "name:br": "String",
        "name:bs": "String",
        "name:ca": "String",
        "name:cs": "String",
        "name:cy": "String",
        "name:da": "String",
        "name:de": "String",
        "name:el": "String",
        "name:en": "String",
        "name:eo": "String",
        "name:es": "String",
        "name:et": "String",
        "name:fi": "String",
        "name:fr": "String",
        "name:fy": "String",
        "name:ga": "String",
        "name:gd": "String",
        "name:he": "String",
        "name:hr": "String",
        "name:hu": "String",
        "name:hy": "String",
        "name:is": "String",
        "name:it": "String",
        "name:ja": "String",
        "name:ja_kana": "String",
        "name:ja_rm": "String",
        "name:ka": "String",
        "name:kk": "String",
        "name:kn": "String",
        "name:ko": "String",
        "name:ko_rm": "String",
        "name:la": "String",
        "name:latin": "String",
        "name:lb": "String",
        "name:lt": "String",
        "name:lv": "String",
        "name:mk": "String",
        "name:ml": "String",
        "name:mt": "String",
        "name:nl": "String",
        "name:no": "String",
        "name:nonlatin": "String",
        "name:pl": "String",
        "name:pt": "String",
        "name:rm": "String",
        "name:ro": "String",
        "name:ru": "String",
        "name:sk": "String",
        "name:sl": "String",
        "name:sq": "String",
        "name:sr": "String",
        "name:sr-Latn": "String",
        "name:sv": "String",
        "name:th": "String",
        "name:tr": "String",
        "name:uk": "String",
        "name:zh": "String",
        "name_de": "String",
        "name_en": "String",
        "name_int": "String",
        "osm_id": "Number",
        "rank": "Number"
      }
    },
    {
      "id": "park",
      "description": "",
      "minzoom": 0,
      "maxzoom": 22,
      "fields": {
        "class": "String",
        "name": "String",
        "name:ar": "String",
        "name:az": "String",
        "name:be": "String",
        "name:bg": "String",
        "name:br": "String",
        "name:bs": "String",
        "name:ca": "String",
        "name:cs": "String",
        "name:cy": "String",
        "name:da": "String",
        "name:de": "String",
        "name:el": "String",
        "name:en": "String",
        "name:eo": "String",
        "name:es": "String",
        "name:et": "String",
        "name:fi": "String",
        "name:fr": "String",
        "name:fy": "String",
        "name:ga": "String",
        "name:gd": "String",
        "name:he": "String",
        "name:hr": "String",
        "name:hu": "String",
        "name:hy": "String",
        "name:is": "String",
        "name:it": "String",
        "name:ja": "String",
        "name:ja_kana": "String",
        "name:ja_rm": "String",
        "name:ka": "String",
        "name:kk": "String",
        "name:kn": "String",
        "name:ko": "String",
        "name:ko_rm": "String",
        "name:la": "String",
        "name:latin": "String",
        "name:lb": "String",
        "name:lt": "String",
        "name:lv": "String",
        "name:mk": "String",
        "name:ml": "String",
        "name:mt": "String",
        "name:nl": "String",
        "name:no": "String",
        "name:nonlatin": "String",
        "name:pl": "String",
        "name:pt": "String",
        "name:rm": "String",
        "name:ro": "String",
        "name:ru": "String",
        "name:sk": "String",
        "name:sl": "String",
        "name:sq": "String",
        "name:sr": "String",
        "name:sr-Latn": "String",
        "name:sv": "String",
        "name:th": "String",
        "name:tr": "String",
        "name:uk": "String",
        "name:zh": "String",
        "name_de": "String",
        "name_en": "String",
        "name_int": "String",
        "rank": "Number"
      }
    },
    {
      "id": "boundary",
      "description": "",
      "minzoom": 0,
      "maxzoom": 22,
      "fields": {
        "admin_level": "Number",
        "disputed": "Number",
        "maritime": "Number"
      }
    },
    {
      "id": "aeroway",
      "description": "",
      "minzoom": 0,
      "maxzoom": 22,
      "fields": { "class": "String", "ref": "String" }
    },
    {
      "id": "transportation",
      "description": "",
      "minzoom": 0,
      "maxzoom": 22,
      "fields": {
        "brunnel": "String",
        "class": "String",
        "indoor": "Number",
        "layer": "Number",
        "level": "Number",
        "oneway": "Number",
        "ramp": "Number",
        "service": "String",
        "subclass": "String"
      }
    },
    {
      "id": "building",
      "description": "",
      "minzoom": 0,
      "maxzoom": 22,
      "fields": { "render_height": "Number", "render_min_height": "Number" }
    },
    {
      "id": "water_name",
      "description": "",
      "minzoom": 0,
      "maxzoom": 22,
      "fields": {
        "class": "String",
        "name": "String",
        "name:ar": "String",
        "name:az": "String",
        "name:be": "String",
        "name:bg": "String",
        "name:br": "String",
        "name:bs": "String",
        "name:ca": "String",
        "name:cs": "String",
        "name:cy": "String",
        "name:da": "String",
        "name:de": "String",
        "name:el": "String",
        "name:en": "String",
        "name:eo": "String",
        "name:es": "String",
        "name:et": "String",
        "name:fi": "String",
        "name:fr": "String",
        "name:fy": "String",
        "name:ga": "String",
        "name:gd": "String",
        "name:he": "String",
        "name:hr": "String",
        "name:hu": "String",
        "name:hy": "String",
        "name:is": "String",
        "name:it": "String",
        "name:ja": "String",
        "name:ja_kana": "String",
        "name:ja_rm": "String",
        "name:ka": "String",
        "name:kk": "String",
        "name:kn": "String",
        "name:ko": "String",
        "name:ko_rm": "String",
        "name:la": "String",
        "name:latin": "String",
        "name:lb": "String",
        "name:lt": "String",
        "name:lv": "String",
        "name:mk": "String",
        "name:ml": "String",
        "name:mt": "String",
        "name:nl": "String",
        "name:no": "String",
        "name:nonlatin": "String",
        "name:pl": "String",
        "name:pt": "String",
        "name:rm": "String",
        "name:ro": "String",
        "name:ru": "String",
        "name:sk": "String",
        "name:sl": "String",
        "name:sq": "String",
        "name:sr": "String",
        "name:sr-Latn": "String",
        "name:sv": "String",
        "name:th": "String",
        "name:tr": "String",
        "name:uk": "String",
        "name:zh": "String",
        "name_de": "String",
        "name_en": "String",
        "name_int": "String"
      }
    },
    {
      "id": "transportation_name",
      "description": "",
      "minzoom": 0,
      "maxzoom": 22,
      "fields": {
        "class": "String",
        "indoor": "Number",
        "layer": "Number",
        "level": "Number",
        "name": "String",
        "name:ar": "String",
        "name:az": "String",
        "name:be": "String",
        "name:bg": "String",
        "name:br": "String",
        "name:bs": "String",
        "name:ca": "String",
        "name:cs": "String",
        "name:cy": "String",
        "name:da": "String",
        "name:de": "String",
        "name:el": "String",
        "name:en": "String",
        "name:eo": "String",
        "name:es": "String",
        "name:et": "String",
        "name:fi": "String",
        "name:fr": "String",
        "name:fy": "String",
        "name:ga": "String",
        "name:gd": "String",
        "name:he": "String",
        "name:hr": "String",
        "name:hu": "String",
        "name:hy": "String",
        "name:is": "String",
        "name:it": "String",
        "name:ja": "String",
        "name:ja_kana": "String",
        "name:ja_rm": "String",
        "name:ka": "String",
        "name:kk": "String",
        "name:kn": "String",
        "name:ko": "String",
        "name:ko_rm": "String",
        "name:la": "String",
        "name:latin": "String",
        "name:lb": "String",
        "name:lt": "String",
        "name:lv": "String",
        "name:mk": "String",
        "name:ml": "String",
        "name:mt": "String",
        "name:nl": "String",
        "name:no": "String",
        "name:nonlatin": "String",
        "name:pl": "String",
        "name:pt": "String",
        "name:rm": "String",
        "name:ro": "String",
        "name:ru": "String",
        "name:sk": "String",
        "name:sl": "String",
        "name:sq": "String",
        "name:sr": "String",
        "name:sr-Latn": "String",
        "name:sv": "String",
        "name:th": "String",
        "name:tr": "String",
        "name:uk": "String",
        "name:zh": "String",
        "name_de": "String",
        "name_en": "String",
        "name_int": "String",
        "network": "String",
        "ref": "String",
        "ref_length": "Number",
        "subclass": "String"
      }
    },
    {
      "id": "place",
      "description": "",
      "minzoom": 0,
      "maxzoom": 22,
      "fields": {
        "capital": "Number",
        "class": "String",
        "iso_a2": "String",
        "name": "String",
        "name:ar": "String",
        "name:az": "String",
        "name:be": "String",
        "name:bg": "String",
        "name:br": "String",
        "name:bs": "String",
        "name:ca": "String",
        "name:cs": "String",
        "name:cy": "String",
        "name:da": "String",
        "name:de": "String",
        "name:el": "String",
        "name:en": "String",
        "name:eo": "String",
        "name:es": "String",
        "name:et": "String",
        "name:fi": "String",
        "name:fr": "String",
        "name:fy": "String",
        "name:ga": "String",
        "name:gd": "String",
        "name:he": "String",
        "name:hr": "String",
        "name:hu": "String",
        "name:hy": "String",
        "name:is": "String",
        "name:it": "String",
        "name:ja": "String",
        "name:ja_kana": "String",
        "name:ja_rm": "String",
        "name:ka": "String",
        "name:kk": "String",
        "name:kn": "String",
        "name:ko": "String",
        "name:ko_rm": "String",
        "name:la": "String",
        "name:latin": "String",
        "name:lb": "String",
        "name:lt": "String",
        "name:lv": "String",
        "name:mk": "String",
        "name:ml": "String",
        "name:mt": "String",
        "name:nl": "String",
        "name:no": "String",
        "name:nonlatin": "String",
        "name:pl": "String",
        "name:pt": "String",
        "name:rm": "String",
        "name:ro": "String",
        "name:ru": "String",
        "name:sk": "String",
        "name:sl": "String",
        "name:sq": "String",
        "name:sr": "String",
        "name:sr-Latn": "String",
        "name:sv": "String",
        "name:th": "String",
        "name:tr": "String",
        "name:uk": "String",
        "name:zh": "String",
        "name_de": "String",
        "name_en": "String",
        "name_int": "String",
        "rank": "Number"
      }
    },
    {
      "id": "housenumber",
      "description": "",
      "minzoom": 0,
      "maxzoom": 22,
      "fields": { "housenumber": "String" }
    },
    {
      "id": "poi",
      "description": "",
      "minzoom": 0,
      "maxzoom": 22,
      "fields": {
        "agg_stop": "Number",
        "class": "String",
        "indoor": "Number",
        "layer": "Number",
        "level": "Number",
        "name": "String",
        "name:ar": "String",
        "name:az": "String",
        "name:be": "String",
        "name:bg": "String",
        "name:br": "String",
        "name:bs": "String",
        "name:ca": "String",
        "name:cs": "String",
        "name:cy": "String",
        "name:da": "String",
        "name:de": "String",
        "name:el": "String",
        "name:en": "String",
        "name:eo": "String",
        "name:es": "String",
        "name:et": "String",
        "name:fi": "String",
        "name:fr": "String",
        "name:fy": "String",
        "name:ga": "String",
        "name:gd": "String",
        "name:he": "String",
        "name:hr": "String",
        "name:hu": "String",
        "name:hy": "String",
        "name:is": "String",
        "name:it": "String",
        "name:ja": "String",
        "name:ja_kana": "String",
        "name:ja_rm": "String",
        "name:ka": "String",
        "name:kk": "String",
        "name:kn": "String",
        "name:ko": "String",
        "name:ko_rm": "String",
        "name:la": "String",
        "name:latin": "String",
        "name:lb": "String",
        "name:lt": "String",
        "name:lv": "String",
        "name:mk": "String",
        "name:ml": "String",
        "name:mt": "String",
        "name:nl": "String",
        "name:no": "String",
        "name:nonlatin": "String",
        "name:pl": "String",
        "name:pt": "String",
        "name:rm": "String",
        "name:ro": "String",
        "name:ru": "String",
        "name:sk": "String",
        "name:sl": "String",
        "name:sq": "String",
        "name:sr": "String",
        "name:sr-Latn": "String",
        "name:sv": "String",
        "name:th": "String",
        "name:tr": "String",
        "name:uk": "String",
        "name:zh": "String",
        "name_de": "String",
        "name_en": "String",
        "name_int": "String",
        "rank": "Number",
        "subclass": "String"
      }
    },
    {
      "id": "aerodrome_label",
      "description": "",
      "minzoom": 0,
      "maxzoom": 22,
      "fields": {
        "class": "String",
        "ele": "Number",
        "ele_ft": "Number",
        "iata": "String",
        "icao": "String",
        "name": "String",
        "name:ar": "String",
        "name:az": "String",
        "name:be": "String",
        "name:bg": "String",
        "name:br": "String",
        "name:bs": "String",
        "name:ca": "String",
        "name:cs": "String",
        "name:cy": "String",
        "name:da": "String",
        "name:de": "String",
        "name:el": "String",
        "name:en": "String",
        "name:eo": "String",
        "name:es": "String",
        "name:et": "String",
        "name:fi": "String",
        "name:fr": "String",
        "name:fy": "String",
        "name:ga": "String",
        "name:gd": "String",
        "name:he": "String",
        "name:hr": "String",
        "name:hu": "String",
        "name:hy": "String",
        "name:is": "String",
        "name:it": "String",
        "name:ja": "String",
        "name:ja_kana": "String",
        "name:ja_rm": "String",
        "name:ka": "String",
        "name:kk": "String",
        "name:kn": "String",
        "name:ko": "String",
        "name:ko_rm": "String",
        "name:la": "String",
        "name:latin": "String",
        "name:lb": "String",
        "name:lt": "String",
        "name:lv": "String",
        "name:mk": "String",
        "name:ml": "String",
        "name:mt": "String",
        "name:nl": "String",
        "name:no": "String",
        "name:nonlatin": "String",
        "name:pl": "String",
        "name:pt": "String",
        "name:rm": "String",
        "name:ro": "String",
        "name:ru": "String",
        "name:sk": "String",
        "name:sl": "String",
        "name:sq": "String",
        "name:sr": "String",
        "name:sr-Latn": "String",
        "name:sv": "String",
        "name:th": "String",
        "name:tr": "String",
        "name:uk": "String",
        "name:zh": "String",
        "name_de": "String",
        "name_en": "String",
        "name_int": "String",
        "osm_id": "Number"
      }
    }
  ],
  "crs": "EPSG:3857",
  "crs_wkt": "PROJCS[\"WGS 84 / Pseudo-Mercator\",GEOGCS[\"WGS 84\",DATUM[\"WGS_1984\",SPHEROID[\"WGS 84\",6378137,298.257223563,AUTHORITY[\"EPSG\",\"7030\"]],AUTHORITY[\"EPSG\",\"6326\"]],PRIMEM[\"Greenwich\",0,AUTHORITY[\"EPSG\",\"8901\"]],UNIT[\"degree\",0.0174532925199433,AUTHORITY[\"EPSG\",\"9122\"]],AUTHORITY[\"EPSG\",\"4326\"]],PROJECTION[\"Mercator_1SP\"],PARAMETER[\"central_meridian\",0],PARAMETER[\"scale_factor\",1],PARAMETER[\"false_easting\",0],PARAMETER[\"false_northing\",0],UNIT[\"metre\",1,AUTHORITY[\"EPSG\",\"9001\"]],AXIS[\"X\",EAST],AXIS[\"Y\",NORTH],EXTENSION[\"PROJ4\",\"+proj=merc +a=6378137 +b=6378137 +lat_ts=0.0 +lon_0=0.0 +x_0=0.0 +y_0=0 +k=1.0 +units=m +nadgrids=@null +wktext +no_defs\"],AUTHORITY[\"EPSG\",\"3857\"]]",
  "extent": [
    -20037508.342789244, -20037471.205137063, 20037508.342789244,
    20037471.205137063
  ],
  "tiles": [
    "https://bmap-tiles-a.busmap.vn/data/vietnam/{z}/{x}/{y}.mvt"
  ],
  "logo": "https://api.maptiler.com/resources/logo.svg"
}
